{"type": "FeatureCollection", "features": [ {"type": "Feature", "properties": {"norad_id": 64901, "name": "CO3D 4", "group": "resource", "lat": 64.5852978607126, "lon": 48.63529157727242, "alt_km": 499.60056126936706, "timestamp": "2025-12-14T05:42:18.115592+00:00", "meta": {"OBJECT_NAME": "CO3D 4", "OBJECT_ID": "2025-156C", "EPOCH": "2025-12-12T15:30:13.261248", "MEAN_MOTION": 15.20210943, "ECCENTRICITY": 0.00010187, "INCLINATION": 97.4314, "RA_OF_ASC_NODE": 63.0114, "ARG_OF_PERICENTER": 237.4062, "MEAN_ANOMALY": 122.7075, "EPHEMERIS_TYPE": 0, "CLASSIFICATION_TYPE": "U", "NORAD_CAT_ID": 64901, "ELEMENT_SET_NO": 999, "REV_AT_EPOCH": 2119, "BSTAR": 5.204221e-05, "MEAN_MOTION_DOT": 1.059e-05, "MEAN_MOTION_DDOT": 0}, "tle": {"line1": "1 64901U 25156C   25346.64598682  .00001059  00000+0  52042-4 0  9998", "line2": "2 64901  97.4314  63.0114 0001018 237.4062 122.7075 15.20210943 21193"}}, "geometry": {"type": "Point", "coordinates": [48.63529157727242, 64.5852978607126]}}, {"type": "Feature", "properties": {"norad_id": 64902, "name": "CO3D 2", "group": "resource", "lat": -74.48899256093434, "lon": -143.46804709269344, "alt_km": 507.0575131117839, "timestamp": "2025-12-14T05:42:18.115602+00:00", "meta": {"OBJECT_NAME": "CO3D 2", "OBJECT_ID": "2025-156D", "EPOCH": "2025-12-12T21:01:26.694624", "MEAN_MOTION": 15.22031437, "ECCENTRICITY": 0.00203863, "INCLINATION": 97.4215, "RA_OF_ASC_NODE": 63.2016, "ARG_OF_PERICENTER": 351.3096, "MEAN_ANOMALY": 8.7784, "EPHEMERIS_TYPE": 0, "CLASSIFICATION_TYPE": "U", "NORAD_CAT_ID": 64902, "ELEMENT_SET_NO": 999, "REV_AT_EPOCH": 2122, "BSTAR": 0.00010503321, "MEAN_MOTION_DOT": 2.342e-05, "MEAN_MOTION_DDOT": 0}, "tle": {"line1": "1 64902U 25156D   25346.87600341  .00002342  00000+0  10503-3 0  9991", "line2": "2 64902  97.4215  63.2016 0020386 351.3096   8.7784 15.22031437 21224"}}, "geometry": {"type": "Point", "coordinates": [-143.46804709269344, -74.48899256093434]}}, {"type": "Feature", "properties": {"norad_id": 64903, "name": "CO3D 1", "group": "resource", "lat": -74.1679289281129, "lon": -142.43679610170346, "alt_km": 479.001891182661, "timestamp": "2025-12-14T05:42:18.115613+00:00", "meta": {"OBJECT_NAME": "CO3D 1", "OBJECT_ID": "2025-156E", "EPOCH": "2025-12-11T15:00:21.413376", "MEAN_MOTION": 15.2097193, "ECCENTRICITY": 0.00688067, "INCLINATION": 97.3738, "RA_OF_ASC_NODE": 62.1786, "ARG_OF_PERICENTER": 215.787, "MEAN_ANOMALY": 143.8746, "EPHEMERIS_TYPE": 0, "CLASSIFICATION_TYPE": "U", "NORAD_CAT_ID": 64903, "ELEMENT_SET_NO": 999, "REV_AT_EPOCH": 2103, "BSTAR": 0.00049386558, "MEAN_MOTION_DOT": 0.00011603, "MEAN_MOTION_DDOT": 0}, "tle": {"line1": "1 64903U 25156E   25345.62524784  .00011603  00000+0  49387-3 0  9992", "line2": "2 64903  97.3738  62.1786 0068806 215.7870 143.8746 15.20971930 21035"}}, "geometry": {"type": "Point", "coordinates": [-142.43679610170346, -74.1679289281129]}}, {"type": "Feature", "properties": {"norad_id": 66514, "name": "SENTINEL-6B", "group": "resource", "lat": 13.926756445543331, "lon": -27.007415402603733, "alt_km": 1336.9974032526006, "timestamp": "2025-12-14T05:42:18.115622+00:00", "meta": {"OBJECT_NAME": "SENTINEL-6B", "OBJECT_ID": "2025-264A", "EPOCH": "2025-12-12T06:01:21.430272", "MEAN_MOTION": 12.81479583, "ECCENTRICITY": 0.00078489, "INCLINATION": 66.0385, "RA_OF_ASC_NODE": 163.4531, "ARG_OF_PERICENTER": 270.1768, "MEAN_ANOMALY": 89.8348, "EPHEMERIS_TYPE": 0, "CLASSIFICATION_TYPE": "U", "NORAD_CAT_ID": 66514, "ELEMENT_SET_NO": 999, "REV_AT_EPOCH": 322, "BSTAR": 0.00019742237, "MEAN_MOTION_DOT": -1.5e-07, "MEAN_MOTION_DDOT": 0}, "tle": {"line1": "1 66514U 25264A   25346.25094248 -.00000015  00000+0  19742-3 0  9997", "line2": "2 66514  66.0385 163.4531 0007848 270.1768  89.8348 12.81479583  3228"}}, "geometry": {"type": "Point", "coordinates": [-27.007415402603733, 13.926756445543331]}}]}